start=new Date('2022-09-08T00:00:00.000Z').valueOf();
sats=[{"ARG_OF_PERICENTER":"47.4335","EPHEMERIS_TYPE":"0","OBJECT_NAME":"STARLINK-3369","RA_OF_ASC_NODE":"269.7654","SEMIMAJOR_AXIS":"6917.979","MEAN_MOTION":"15.08807614","ECCENTRICITY":"0.00021590","TIME_SYSTEM":"UTC","REV_AT_EPOCH":"130","DECAY_DATE":null,"TLE_LINE2":"2 51142  53.2155 269.7654 0002159  47.4335 230.8299 15.08807614  1305","RCS_SIZE":"LARGE","LAUNCH_DATE":"2022-01-19","GP_ID":"212011868","MEAN_MOTION_DOT":"0.00047752","CLASSIFICATION_TYPE":"U","NORAD_CAT_ID":"51142","PERIAPSIS":"538.351","MEAN_MOTION_DDOT":"0.0000000000000","PERIOD":"95.440","SITE":"AFETR","COUNTRY_CODE":"US","APOAPSIS":"541.338","ELEMENT_SET_NO":"999","OBJECT_TYPE":"PAYLOAD","BSTAR":"0.00300080000000","OBJECT_ID":"2022-005AQ","INCLINATION":"53.2155","MEAN_ELEMENT_THEORY":"SGP4","CENTER_NAME":"EARTH","EPOCH":"2022-09-07T22:00:00.999936","REF_FRAME":"TEME","MEAN_ANOMALY":"230.8299","TLE_LINE1":"1 51142U 22005AQ  22250.91667824  .00047752  00000-0  30008-2 0  9994","FILE":"3563022"},{"ARG_OF_PERICENTER":"74.1512","EPHEMERIS_TYPE":"0","SEMIMAJOR_AXIS":"6917.896","RA_OF_ASC_NODE":"292.1259","OBJECT_NAME":"STARLINK-3184","REV_AT_EPOCH":"3546","TIME_SYSTEM":"UTC","ECCENTRICITY":"0.00012100","MEAN_MOTION":"15.08834747","LAUNCH_DATE":"2022-01-19","DECAY_DATE":null,"TLE_LINE2":"2 51143  53.2160 292.1259 0001210  74.1512 285.9614 15.08834747 35467","RCS_SIZE":"LARGE","CLASSIFICATION_TYPE":"U","GP_ID":"211967362","MEAN_MOTION_DOT":"-0.00002008","MEAN_MOTION_DDOT":"0.0000000000000","PERIAPSIS":"538.924","NORAD_CAT_ID":"51143","COUNTRY_CODE":"US","APOAPSIS":"540.599","ELEMENT_SET_NO":"999","PERIOD":"95.438","SITE":"AFETR","OBJECT_TYPE":"PAYLOAD","BSTAR":"-0.00010810000000","INCLINATION":"53.2160","OBJECT_ID":"2022-005AR","EPOCH":"2022-09-07T09:23:59.357472","CENTER_NAME":"EARTH","MEAN_ELEMENT_THEORY":"SGP4","MEAN_ANOMALY":"285.9614","REF_FRAME":"TEME","FILE":"3562217","TLE_LINE1":"1 51143U 22005AR  22250.39165923 -.00002008  00000-0 -10810-3 0  9997"},{"ECCENTRICITY":"0.00015870","MEAN_MOTION":"15.08818510","REV_AT_EPOCH":"3562","TIME_SYSTEM":"UTC","SEMIMAJOR_AXIS":"6917.946","RA_OF_ASC_NODE":"281.7335","OBJECT_NAME":"STARLINK-3185","EPHEMERIS_TYPE":"0","ARG_OF_PERICENTER":"48.1455","COUNTRY_CODE":"US","APOAPSIS":"540.909","ELEMENT_SET_NO":"999","PERIOD":"95.439","SITE":"AFETR","MEAN_MOTION_DDOT":"0.0000000000000","NORAD_CAT_ID":"51144","PERIAPSIS":"538.713","GP_ID":"211966110","MEAN_MOTION_DOT":"-0.00000583","CLASSIFICATION_TYPE":"U","DECAY_DATE":null,"TLE_LINE2":"2 51144  53.2182 281.7335 0001587  48.1455 311.9672 15.08818510 35627","RCS_SIZE":"LARGE","LAUNCH_DATE":"2022-01-19","INCLINATION":"53.2182","OBJECT_ID":"2022-005AS","BSTAR":"-0.00001857400000","OBJECT_TYPE":"PAYLOAD","TLE_LINE1":"1 51144U 22005AS  22250.47722163 -.00000583  00000-0 -18574-4 0  9994","FILE":"3562217","REF_FRAME":"TEME","MEAN_ANOMALY":"311.9672","MEAN_ELEMENT_THEORY":"SGP4","CENTER_NAME":"EARTH","EPOCH":"2022-09-07T11:27:11.948832"},{"ARG_OF_PERICENTER":"91.0836","EPHEMERIS_TYPE":"0","RA_OF_ASC_NODE":"291.5488","SEMIMAJOR_AXIS":"6917.913","OBJECT_NAME":"STARLINK-3365","REV_AT_EPOCH":"3659","TIME_SYSTEM":"UTC","ECCENTRICITY":"0.00013030","MEAN_MOTION":"15.08829306","LAUNCH_DATE":"2022-01-19","DECAY_DATE":null,"TLE_LINE2":"2 51145  53.2164 291.5488 0001303  91.0836 269.0305 15.08829306 36590","RCS_SIZE":"LARGE","CLASSIFICATION_TYPE":"U","MEAN_MOTION_DOT":"0.00000636","GP_ID":"211975678","MEAN_MOTION_DDOT":"0.0000000000000","NORAD_CAT_ID":"51145","PERIAPSIS":"538.877","ELEMENT_SET_NO":"999","COUNTRY_CODE":"US","APOAPSIS":"540.679","SITE":"AFETR","PERIOD":"95.438","OBJECT_TYPE":"PAYLOAD","BSTAR":"0.00005808700000","INCLINATION":"53.2164","OBJECT_ID":"2022-005AT","EPOCH":"2022-09-07T12:29:27.610080","CENTER_NAME":"EARTH","MEAN_ELEMENT_THEORY":"SGP4","MEAN_ANOMALY":"269.0305","REF_FRAME":"TEME","FILE":"3562516","TLE_LINE1":"1 51145U 22005AT  22250.52045845  .00000636  00000-0  58087-4 0  9996"},{"OBJECT_ID":"2022-005AU","INCLINATION":"53.2180","BSTAR":"-0.00007046800000","OBJECT_TYPE":"PAYLOAD","TLE_LINE1":"1 51146U 22005AU  22250.41834830 -.00001409  00000-0 -70468-4 0  9993","FILE":"3562217","REF_FRAME":"TEME","MEAN_ANOMALY":"305.7711","MEAN_ELEMENT_THEORY":"SGP4","EPOCH":"2022-09-07T10:02:25.293120","CENTER_NAME":"EARTH","MEAN_MOTION":"15.08822353","ECCENTRICITY":"0.00019910","REV_AT_EPOCH":"3560","TIME_SYSTEM":"UTC","OBJECT_NAME":"STARLINK-3354","RA_OF_ASC_NODE":"281.9963","SEMIMAJOR_AXIS":"6917.934","EPHEMERIS_TYPE":"0","ARG_OF_PERICENTER":"54.3466","PERIOD":"95.439","SITE":"AFETR","APOAPSIS":"541.177","COUNTRY_CODE":"US","ELEMENT_SET_NO":"999","PERIAPSIS":"538.422","NORAD_CAT_ID":"51146","MEAN_MOTION_DDOT":"0.0000000000000","MEAN_MOTION_DOT":"-0.00001409","GP_ID":"211966611","CLASSIFICATION_TYPE":"U","DECAY_DATE":null,"TLE_LINE2":"2 51146  53.2180 281.9963 0001991  54.3466 305.7711 15.08822353 35609","RCS_SIZE":"LARGE","LAUNCH_DATE":"2022-01-19"},{"OBJECT_ID":"2022-005AV","INCLINATION":"53.2176","BSTAR":"-0.00012301000000","OBJECT_TYPE":"PAYLOAD","TLE_LINE1":"1 51147U 22005AV  22250.52782438 -.00002244  00000-0 -12301-3 0  9991","FILE":"3561951","REF_FRAME":"TEME","MEAN_ANOMALY":"293.3563","MEAN_ELEMENT_THEORY":"SGP4","EPOCH":"2022-09-07T12:40:04.026432","CENTER_NAME":"EARTH","MEAN_MOTION":"15.08827164","ECCENTRICITY":"0.00014900","TIME_SYSTEM":"UTC","REV_AT_EPOCH":"3660","OBJECT_NAME":"STARLINK-3352","SEMIMAJOR_AXIS":"6917.920","RA_OF_ASC_NODE":"291.5140","EPHEMERIS_TYPE":"0","ARG_OF_PERICENTER":"66.7586","PERIOD":"95.438","SITE":"AFETR","APOAPSIS":"540.815","COUNTRY_CODE":"US","ELEMENT_SET_NO":"999","NORAD_CAT_ID":"51147","PERIAPSIS":"538.754","MEAN_MOTION_DDOT":"0.0000000000000","MEAN_MOTION_DOT":"-0.00002244","GP_ID":"211936118","CLASSIFICATION_TYPE":"U","TLE_LINE2":"2 51147  53.2176 291.5140 0001490  66.7586 293.3563 15.08827164 36606","DECAY_DATE":null,"RCS_SIZE":"LARGE","LAUNCH_DATE":"2022-01-19"},{"MEAN_MOTION_DOT":"-0.00002289","GP_ID":"211965610","CLASSIFICATION_TYPE":"U","RCS_SIZE":"LARGE","TLE_LINE2":"2 51148  53.2178 292.1487 0001666  52.7610 307.3534 15.08827497 35464","DECAY_DATE":null,"LAUNCH_DATE":"2022-01-19","SITE":"AFETR","PERIOD":"95.438","ELEMENT_SET_NO":"999","COUNTRY_CODE":"US","APOAPSIS":"540.936","PERIAPSIS":"538.631","NORAD_CAT_ID":"51148","MEAN_MOTION_DDOT":"0.0000000000000","EPHEMERIS_TYPE":"0","ARG_OF_PERICENTER":"52.7610","ECCENTRICITY":"0.00016660","MEAN_MOTION":"15.08827497","TIME_SYSTEM":"UTC","REV_AT_EPOCH":"3546","OBJECT_NAME":"STARLINK-3359","RA_OF_ASC_NODE":"292.1487","SEMIMAJOR_AXIS":"6917.919","REF_FRAME":"TEME","MEAN_ANOMALY":"307.3534","MEAN_ELEMENT_THEORY":"SGP4","CENTER_NAME":"EARTH","EPOCH":"2022-09-07T09:13:23.864736","TLE_LINE1":"1 51148U 22005AW  22250.38430399 -.00002289  00000-0 -12580-3 0  9990","FILE":"3562217","OBJECT_TYPE":"PAYLOAD","OBJECT_ID":"2022-005AW","INCLINATION":"53.2178","BSTAR":"-0.00012580000000"},{"MEAN_ELEMENT_THEORY":"SGP4","CENTER_NAME":"EARTH","EPOCH":"2022-09-07T09:08:05.648352","REF_FRAME":"TEME","MEAN_ANOMALY":"292.6755","TLE_LINE1":"1 51149U 22005AX  22250.38062093 -.00000787  00000-0 -31388-4 0  9992","FILE":"3562217","OBJECT_TYPE":"PAYLOAD","BSTAR":"-0.00003138800000","INCLINATION":"53.2167","OBJECT_ID":"2022-005AX","DECAY_DATE":null,"TLE_LINE2":"2 51149  53.2167 292.1578 0001416  67.4387 292.6755 15.08827341 35460","RCS_SIZE":"LARGE","LAUNCH_DATE":"2022-01-19","MEAN_MOTION_DOT":"-0.00000787","GP_ID":"211965860","CLASSIFICATION_TYPE":"U","MEAN_MOTION_DDOT":"0.0000000000000","NORAD_CAT_ID":"51149","PERIAPSIS":"538.805","APOAPSIS":"540.764","COUNTRY_CODE":"US","ELEMENT_SET_NO":"999","SITE":"AFETR","PERIOD":"95.438","ARG_OF_PERICENTER":"67.4387","EPHEMERIS_TYPE":"0","SEMIMAJOR_AXIS":"6917.919","RA_OF_ASC_NODE":"292.1578","OBJECT_NAME":"STARLINK-3360","MEAN_MOTION":"15.08827341","ECCENTRICITY":"0.00014160","REV_AT_EPOCH":"3546","TIME_SYSTEM":"UTC"},{"TLE_LINE1":"1 51150U 22005AY  22250.53609017 -.00000214  00000-0  46588-5 0  9997","FILE":"3563022","MEAN_ELEMENT_THEORY":"SGP4","CENTER_NAME":"EARTH","EPOCH":"2022-09-07T12:51:58.190688","REF_FRAME":"TEME","MEAN_ANOMALY":"310.7797","BSTAR":"0.00000465880000","INCLINATION":"53.2165","OBJECT_ID":"2022-005AY","OBJECT_TYPE":"PAYLOAD","MEAN_MOTION_DDOT":"0.0000000000000","PERIAPSIS":"538.544","NORAD_CAT_ID":"51150","ELEMENT_SET_NO":"999","COUNTRY_CODE":"US","APOAPSIS":"540.972","SITE":"AFETR","PERIOD":"95.438","TLE_LINE2":"2 51150  53.2165 281.4727 0001755  49.3348 310.7797 15.08836007 35635","DECAY_DATE":null,"RCS_SIZE":"LARGE","LAUNCH_DATE":"2022-01-19","GP_ID":"212011869","MEAN_MOTION_DOT":"-0.00000214","CLASSIFICATION_TYPE":"U","SEMIMAJOR_AXIS":"6917.893","RA_OF_ASC_NODE":"281.4727","OBJECT_NAME":"STARLINK-3357","ECCENTRICITY":"0.00017550","MEAN_MOTION":"15.08836007","REV_AT_EPOCH":"3563","TIME_SYSTEM":"UTC","ARG_OF_PERICENTER":"49.3348","EPHEMERIS_TYPE":"0"},{"TLE_LINE1":"1 51151U 22005AZ  22250.50574311  .00001177  00000-0  92087-4 0  9995","FILE":"3562217","REF_FRAME":"TEME","MEAN_ANOMALY":"305.1636","MEAN_ELEMENT_THEORY":"SGP4","EPOCH":"2022-09-07T12:08:16.204704","CENTER_NAME":"EARTH","OBJECT_ID":"2022-005AZ","INCLINATION":"53.2155","BSTAR":"0.00009208700000","OBJECT_TYPE":"PAYLOAD","SITE":"AFETR","PERIOD":"95.439","COUNTRY_CODE":"US","ELEMENT_SET_NO":"999","APOAPSIS":"540.938","PERIAPSIS":"538.659","NORAD_CAT_ID":"51151","MEAN_MOTION_DDOT":"0.0000000000000","GP_ID":"211967363","MEAN_MOTION_DOT":"0.00001177","CLASSIFICATION_TYPE":"U","TLE_LINE2":"2 51151  53.2155 291.5908 0001647  54.9511 305.1636 15.08822608 35487","DECAY_DATE":null,"RCS_SIZE":"LARGE","LAUNCH_DATE":"2022-01-19","MEAN_MOTION":"15.08822608","ECCENTRICITY":"0.00016470","REV_AT_EPOCH":"3548","TIME_SYSTEM":"UTC","OBJECT_NAME":"STARLINK-3361","RA_OF_ASC_NODE":"291.5908","SEMIMAJOR_AXIS":"6917.934","EPHEMERIS_TYPE":"0","ARG_OF_PERICENTER":"54.9511"}];
